ONEWEB-0311             
1 49097U 21075Y   25157.51549018  .00000013  00000+0 -89560-8 0  9997
2 49097  87.9070  80.6562 0002131  67.7631 292.3726 13.17650495184157
ONEWEB-0312             
1 49098U 21075Z   25157.53067719 -.00000013  00000+0 -65763-4 0  9999
2 49098  87.9069  80.6839 0002370  74.4494 285.6899 13.17649973184133
ONEWEB-0313             
1 49099U 21075AA  25157.76340152 -.00000012  00000+0 -63305-4 0  9999
2 49099  87.9071  80.6533 0001905  74.8773 285.2569 13.17649986185152
ONEWEB-0314             
1 49100U 21075AB  25157.50198796  .00000039  00000+0  66118-4 0  9991
2 49100  87.9067  80.6372 0002353  73.0154 287.1235 13.17649916184099
ONEWEB-0315             
1 49101U 21075AC  25157.43639868  .00000314  00000+0  83876-3 0  9999
2 49101  87.8884  65.3844 0001844  66.2304 293.9018 13.12444319185882
ONEWEB-0316             
1 49102U 21075AD  25157.41908650  .00000032  00000+0  47934-4 0  9999
2 49102  87.9157  50.1448 0001832  72.8497 287.2836 13.18687335187689
ONEWEB-0317             
1 49103U 21075AE  25157.50615460  .00000412  00000+0  11099-2 0  9997
2 49103  87.8887  65.3857 0002397  96.2626 263.8776 13.12441915185915
ONEWEB-0318             
1 49104U 21075AF  25157.41593463  .00000085  00000+0  18270-3 0  9991
2 49104  87.9158  50.1309 0001856  70.6205 289.5127 13.18686152187647
